[
    {
        "Altitude(m)": 624790.8125460476,
        "Argument of Periapsis(deg)": 0.0,
        "Eccentricity": 0.0,
        "Inclination(deg)": 60.0,
        "Latitude(deg)": -59.147168596755456,
        "Longitude(deg)": -158.9655511838658,
        "Mean Anomaly(deg)": 278.1818,
        "RAAN(deg)": 15.0,
        "Satellite Name": "Test1 83",
        "Satellite Number": 83,
        "Semi-Major Axis(m)": 6980739.136638005,
        "Time(s)": 0
    },
    {
        "Altitude(m)": 624737.4682705196,
        "Argument of Periapsis(deg)": 0.00010418945913296404,
        "Eccentricity": 0.0,
        "Inclination(deg)": 60.0,
        "Latitude(deg)": -58.99462557216759,
        "Longitude(deg)": -157.8460464548644,
        "Mean Anomaly(deg)": 278.8019061454618,
        "RAAN(deg)": 14.999579950860259,
        "Satellite Name": "Test1 83",
        "Satellite Number": 83,
        "Semi-Major Axis(m)": 6980739.136638005,
        "Time(s)": 10
    }
]